[
    {
        "Altitude(m)": 624792.737860647,
        "Argument of Periapsis(deg)": 0.0,
        "Eccentricity": 0.0,
        "Inclination(deg)": 60.0,
        "Latitude(deg)": -59.14698385436724,
        "Longitude(deg)": 104.02637542375636,
        "Mean Anomaly(deg)": -98.18180000000004,
        "RAAN(deg)": 310.0,
        "Satellite Name": "Test1 1380",
        "Satellite Number": 1380,
        "Semi-Major Axis(m)": 6980739.136638005,
        "Time(s)": 0
    },
    {
        "Altitude(m)": 624842.1300990036,
        "Argument of Periapsis(deg)": 0.00010418945913296404,
        "Eccentricity": 0.0,
        "Inclination(deg)": 60.0,
        "Latitude(deg)": -59.289067789988486,
        "Longitude(deg)": 105.15587591090984,
        "Mean Anomaly(deg)": -97.56169385453819,
        "RAAN(deg)": 309.99957995086027,
        "Satellite Name": "Test1 1380",
        "Satellite Number": 1380,
        "Semi-Major Axis(m)": 6980739.136638005,
        "Time(s)": 10
    },
    {
        "Altitude(m)": 624887.698086772,
        "Argument of Periapsis(deg)": 0.0002083789182659281,
        "Eccentricity": 0.0,
        "Inclination(deg)": 60.0,
        "Latitude(deg)": -59.42054091805415,
        "Longitude(deg)": 106.2947969116137,
        "Mean Anomaly(deg)": -96.94158770907633,
        "RAAN(deg)": 309.99915990172053,
        "Satellite Name": "Test1 1380",
        "Satellite Number": 1380,
        "Semi-Major Axis(m)": 6980739.136638005,
        "Time(s)": 20
    },
    {
        "Altitude(m)": 624929.4238605244,
        "Argument of Periapsis(deg)": 0.00031256837739889213,
        "Eccentricity": 0.0,
        "Inclination(deg)": 60.0,
        "Latitude(deg)": -59.54126593783667,
        "Longitude(deg)": 107.44251612750242,
        "Mean Anomaly(deg)": -96.32148156361453,
        "RAAN(deg)": 309.9987398525808,
        "Satellite Name": "Test1 1380",
        "Satellite Number": 1380,
        "Semi-Major Axis(m)": 6980739.136638005,
        "Time(s)": 30
    },
    {
        "Altitude(m)": 624967.2909679889,
        "Argument of Periapsis(deg)": 0.0004167578365318562,
        "Eccentricity": 0.0,
        "Inclination(deg)": 60.0,
        "Latitude(deg)": -59.65111468191447,
        "Longitude(deg)": 108.59837627579981,
        "Mean Anomaly(deg)": -95.70137541815268,
        "RAAN(deg)": 309.99831980344106,
        "Satellite Name": "Test1 1380",
        "Satellite Number": 1380,
        "Semi-Major Axis(m)": 6980739.136638005,
        "Time(s)": 40
    },
    {
        "Altitude(m)": 625001.2844750028,
        "Argument of Periapsis(deg)": 0.0005209472956648203,
        "Eccentricity": 0.0,
        "Inclination(deg)": 60.0,
        "Latitude(deg)": -59.74996875525452,
        "Longitude(deg)": 109.76168592599758,
        "Mean Anomaly(deg)": -95.08126927269083,
        "RAAN(deg)": 309.99789975430133,
        "Satellite Name": "Test1 1380",
        "Satellite Number": 1380,
        "Semi-Major Axis(m)": 6980739.136638005,
        "Time(s)": 50
    },
    {
        "Altitude(m)": 625031.3909717848,
        "Argument of Periapsis(deg)": 0.0006251367547977843,
        "Eccentricity": 0.0,
        "Inclination(deg)": 60.0,
        "Latitude(deg)": -59.837720141222725,
        "Longitude(deg)": 110.93172217409683,
        "Mean Anomaly(deg)": -94.46116312722897,
        "RAAN(deg)": 309.99747970516154,
        "Satellite Name": "Test1 1380",
        "Satellite Number": 1380,
        "Semi-Major Axis(m)": 6980739.136638005,
        "Time(s)": 60
    },
    {
        "Altitude(m)": 625057.5985786057,
        "Argument of Periapsis(deg)": 0.0007293262139307483,
        "Eccentricity": 0.0,
        "Inclination(deg)": 60.0,
        "Latitude(deg)": -59.91427176768573,
        "Longitude(deg)": 112.10773363130467,
        "Mean Anomaly(deg)": -93.84105698176717,
        "RAAN(deg)": 309.99705965602186,
        "Satellite Name": "Test1 1380",
        "Satellite Number": 1380,
        "Semi-Major Axis(m)": 6980739.136638005,
        "Time(s)": 70
    },
    {
        "Altitude(m)": 625079.8969507745,
        "Argument of Periapsis(deg)": 0.0008335156730637124,
        "Eccentricity": 0.0,
        "Inclination(deg)": 60.0,
        "Latitude(deg)": -59.97953802657351,
        "Longitude(deg)": 113.28894219841666,
        "Mean Anomaly(deg)": -93.22095083630532,
        "RAAN(deg)": 309.99663960688207,
        "Satellite Name": "Test1 1380",
        "Satellite Number": 1380,
        "Semi-Major Axis(m)": 6980739.136638005,
        "Time(s)": 80
    },
    {
        "Altitude(m)": 625098.2772830026,
        "Argument of Periapsis(deg)": 0.0009377051321966765,
        "Eccentricity": 0.0,
        "Inclination(deg)": 60.0,
        "Latitude(deg)": -60.033445240627145,
        "Longitude(deg)": 114.47454663022177,
        "Mean Anomaly(deg)": -92.60084469084347,
        "RAAN(deg)": 309.9962195577423,
        "Satellite Name": "Test1 1380",
        "Satellite Number": 1380,
        "Semi-Major Axis(m)": 6980739.136638005,
        "Time(s)": 90
    },
    {
        "Altitude(m)": 625112.732313111,
        "Argument of Periapsis(deg)": 0.0010418945913296407,
        "Eccentricity": 0.0,
        "Inclination(deg)": 60.0,
        "Latitude(deg)": -60.07593207153949,
        "Longitude(deg)": 115.66372635036709,
        "Mean Anomaly(deg)": -91.98073854538161,
        "RAAN(deg)": 309.99579950860254,
        "Satellite Name": "Test1 1380",
        "Satellite Number": 1380,
        "Semi-Major Axis(m)": 6980739.136638005,
        "Time(s)": 100
    },
    {
        "Altitude(m)": 625123.2563250832,
        "Argument of Periapsis(deg)": 0.0011460840504626045,
        "Eccentricity": 0.0,
        "Inclination(deg)": 60.0,
        "Latitude(deg)": -60.1069498643051,
        "Longitude(deg)": 116.85564397217574,
        "Mean Anomaly(deg)": -91.36063239991981,
        "RAAN(deg)": 309.9953794594628,
        "Satellite Name": "Test1 1380",
        "Satellite Number": 1380,
        "Semi-Major Axis(m)": 6980739.136638005,
        "Time(s)": 110
    },
    {
        "Altitude(m)": 625129.8451514776,
        "Argument of Periapsis(deg)": 0.0012502735095955685,
        "Eccentricity": 0.0,
        "Inclination(deg)": 60.0,
        "Latitude(deg)": -60.12646292332555,
        "Longitude(deg)": 118.04944951509044,
        "Mean Anomaly(deg)": -90.74052625445796,
        "RAAN(deg)": 309.9949594103231,
        "Satellite Name": "Test1 1380",
        "Satellite Number": 1380,
        "Semi-Major Axis(m)": 6980739.136638005,
        "Time(s)": 120
    },
    {
        "Altitude(m)": 625132.4961751869,
        "Argument of Periapsis(deg)": 0.0013544629687285324,
        "Eccentricity": 0.0,
        "Inclination(deg)": 60.0,
        "Latitude(deg)": -60.134448716641685,
        "Longitude(deg)": 119.24428476402795,
        "Mean Anomaly(deg)": -90.12042010899621,
        "RAAN(deg)": 309.99453936118334,
        "Satellite Name": "Test1 1380",
        "Satellite Number": 1380,
        "Semi-Major Axis(m)": 6980739.136638005,
        "Time(s)": 130
    },
    {
        "Altitude(m)": 625131.2083305388,
        "Argument of Periapsis(deg)": 0.0014586524278614966,
        "Eccentricity": 0.0,
        "Inclination(deg)": 60.0,
        "Latitude(deg)": -60.13089800557694,
        "Longitude(deg)": 120.43928621592843,
        "Mean Anomaly(deg)": -89.50031396353435,
        "RAAN(deg)": 309.9941193120436,
        "Satellite Name": "Test1 1380",
        "Satellite Number": 1380,
        "Semi-Major Axis(m)": 6980739.136638005,
        "Time(s)": 140
    },
    {
        "Altitude(m)": 625125.9821037354,
        "Argument of Periapsis(deg)": 0.0015628418869944607,
        "Eccentricity": 0.0,
        "Inclination(deg)": 60.0,
        "Latitude(deg)": -60.11581489805761,
        "Longitude(deg)": 121.63358959425675,
        "Mean Anomaly(deg)": -88.88020781807256,
        "RAAN(deg)": 309.9936992629039,
        "Satellite Name": "Test1 1380",
        "Satellite Number": 1380,
        "Semi-Major Axis(m)": 6980739.136638005,
        "Time(s)": 150
    },
    {
        "Altitude(m)": 625116.8195326788,
        "Argument of Periapsis(deg)": 0.0016670313461274247,
        "Eccentricity": 0.0,
        "Inclination(deg)": 60.0,
        "Latitude(deg)": -60.08921682489122,
        "Longitude(deg)": 122.82633437243257,
        "Mean Anomaly(deg)": -88.2601016726107,
        "RAAN(deg)": 309.99327921376414,
        "Satellite Name": "Test1 1380",
        "Satellite Number": 1380,
        "Semi-Major Axis(m)": 6980739.136638005,
        "Time(s)": 160
    },
    {
        "Altitude(m)": 625103.7242060829,
        "Argument of Periapsis(deg)": 0.0017712208052603888,
        "Eccentricity": 0.0,
        "Inclination(deg)": 60.0,
        "Latitude(deg)": -60.051134439321515,
        "Longitude(deg)": 124.01666674696843,
        "Mean Anomaly(deg)": -87.63999552714894,
        "RAAN(deg)": 309.99285916462435,
        "Satellite Name": "Test1 1380",
        "Satellite Number": 1380,
        "Semi-Major Axis(m)": 6980739.136638005,
        "Time(s)": 170
    },
    {
        "Altitude(m)": 625086.7012619989,
        "Argument of Periapsis(deg)": 0.001875410264393353,
        "Eccentricity": 0.0,
        "Inclination(deg)": 60.0,
        "Latitude(deg)": -60.00161144121067,
        "Longitude(deg)": 125.20374404050891,
        "Mean Anomaly(deg)": -87.0198893816871,
        "RAAN(deg)": 309.9924391154846,
        "Satellite Name": "Test1 1380",
        "Satellite Number": 1380,
        "Semi-Major Axis(m)": 6980739.136638005,
        "Time(s)": 180
    },
    {
        "Altitude(m)": 625065.7573856325,
        "Argument of Periapsis(deg)": 0.0019795997235263173,
        "Eccentricity": 0.0,
        "Inclination(deg)": 60.0,
        "Latitude(deg)": -59.94070432819229,
        "Longitude(deg)": 126.38673897812397,
        "Mean Anomaly(deg)": -86.3997832362253,
        "RAAN(deg)": 309.9920190663449,
        "Satellite Name": "Test1 1380",
        "Satellite Number": 1380,
        "Semi-Major Axis(m)": 6980739.136638005,
        "Time(s)": 190
    }
]